NORAD_CAT_ID,OBJECT_NAME,OBJECT_TYPE,EPOCH,MEAN_MOTION,ECCENTRICITY,INCLINATION,RA_OF_ASC_NODE,ARG_OF_PERICENTER,MEAN_ANOMALY,BSTAR,MEAN_MOTION_DOT,MEAN_MOTION_DDOT,TLE_LINE0,TLE_LINE1,TLE_LINE2,SEMIMAJOR_AXIS,PERIOD,APOGEE,PERIGEE,DECAYED
51802.0,STARLINK-3557,PAYLOAD,2024-01-05 21:12:18,15.08834547,0.0001279,53.2183,312.6475,100.0178,260.0959,4.4664e-05,4.23e-06,0.0,0 STARLINK-3557,1 51802U 22017AL  24005.88355207  .00000423  00000-0  44664-4 0  9994,2 51802  53.2183 312.6475 0001279 100.0178 260.0959 15.08834547104083,6917.897,95.438,540.647,538.877,0.0
51802.0,STARLINK-3557,PAYLOAD,2024-01-06 03:33:51,15.0883907,0.0001424,53.2185,311.4579,104.4638,255.6512,7.3248e-05,8.78e-06,0.0,0 STARLINK-3557,1 51802U 22017AL  24006.14850906  .00000878  00000-0  73248-4 0  9994,2 51802  53.2185 311.4579 0001424 104.4638 255.6512 15.08839070104124,6917.883,95.438,540.733,538.763,0.0
51802.0,STARLINK-3557,PAYLOAD,2024-01-06 06:44:37,15.08837461,0.000145,53.219,310.8624,99.9255,260.1901,9.6004e-05,1.24e-05,0.0,0 STARLINK-3557,1 51802U 22017AL  24006.28098905  .00001240  00000-0  96004-4 0  9991,2 51802  53.2190 310.8624 0001450  99.9255 260.1901 15.08837461104143,6917.888,95.438,540.756,538.75,0.0
51802.0,STARLINK-3557,PAYLOAD,2024-01-07 03:24:38,15.08843754,0.0001492,53.2187,306.9959,95.1807,264.9355,3.5184e-06,-2.32e-06,0.0,0 STARLINK-3557,1 51802U 22017AL  24007.14211034 -.00000232  00000-0  35184-5 0  9991,2 51802  53.2187 306.9959 0001492  95.1807 264.9355 15.08843754104274,6917.869,95.437,540.766,538.702,0.0
51802.0,STARLINK-3557,PAYLOAD,2024-01-07 19:18:30,15.08839063,0.0001815,53.2185,304.0238,104.2284,255.891,-1.491e-06,-3.12e-06,0.0,0 STARLINK-3557,1 51802U 22017AL  24007.80451614 -.00000312  00000-0 -14910-5 0  9998,2 51802  53.2185 304.0238 0001815 104.2284 255.8910 15.08839063104376,6917.883,95.438,541.004,538.493,0.0
51802.0,STARLINK-3557,PAYLOAD,2024-01-08 04:50:48,15.08845103,0.0001397,53.2184,302.2411,80.9935,279.1216,0.0001062,1.403e-05,0.0,0 STARLINK-3557,1 51802U 22017AL  24008.20195000  .00001403  00000-0  10620-3 0  9999,2 51802  53.2184 302.2411 0001397  80.9935 279.1216 15.08845103104433,6917.865,95.437,540.696,538.763,0.0
51802.0,STARLINK-3557,PAYLOAD,2024-01-09 01:30:49,15.08843699,0.0001718,53.2189,298.3722,80.1326,279.986,6.6071e-05,7.64e-06,0.0,0 STARLINK-3557,1 51802U 22017AL  24009.06307240  .00000764  00000-0  66071-4 0  9996,2 51802  53.2189 298.3722 0001718  80.1326 279.9860 15.08843699104566,6917.869,95.437,540.923,538.546,0.0
51802.0,STARLINK-3557,PAYLOAD,2024-01-09 19:00:04,15.08801266,0.0001759,53.2191,295.1027,77.5047,282.6142,0.00062129,9.603e-05,0.0,0 STARLINK-3557,1 51802U 22017AL  24009.79172077  .00009603  00000-0  62129-3 0  9994,2 51802  53.2191 295.1027 0001759  77.5047 282.6142 15.08801266104677,6917.999,95.44,541.081,538.647,0.0
51802.0,STARLINK-3557,PAYLOAD,2024-01-09 22:10:50,15.08841168,0.0001558,53.2184,294.5095,83.788,276.3289,0.00010377,1.364e-05,0.0,0 STARLINK-3557,1 51802U 22017AL  24009.92419262  .00001364  00000-0  10377-3 0  9993,2 51802  53.2184 294.5095 0001558  83.7880 276.3289 15.08841168104697,6917.877,95.437,540.82,538.664,0.0
51802.0,STARLINK-3557,PAYLOAD,2024-01-10 01:21:35,15.08867862,0.0001497,53.2184,293.9143,92.5784,267.538,-0.00025749,-4.387e-05,0.0,0 STARLINK-3557,1 51802U 22017AL  24010.05666446 -.00004387  00000-0 -25749-3 0  9996,2 51802  53.2184 293.9143 0001497  92.5784 267.5380 15.08867862104713,6917.795,95.436,540.696,538.625,0.0
51802.0,STARLINK-3557,PAYLOAD,2024-01-10 18:50:51,15.08842036,0.0001744,53.2185,290.6458,82.2349,277.8841,4.5979e-05,4.44e-06,0.0,0 STARLINK-3557,1 51802U 22017AL  24010.78531307  .00000444  00000-0  45979-4 0  9999,2 51802  53.2185 290.6458 0001744  82.2349 277.8841 15.08842036104829,6917.874,95.437,540.946,538.533,0.0
51802.0,STARLINK-3557,PAYLOAD,2024-01-11 04:23:09,15.08851628,0.0001624,53.2174,288.8583,88.722,271.3958,4.2509e-05,3.89e-06,0.0,0 STARLINK-3557,1 51802U 22017AL  24011.18274539  .00000389  00000-0  42509-4 0  9999,2 51802  53.2174 288.8583 0001624  88.7220 271.3958 15.08851628104882,6917.845,95.437,540.833,538.586,0.0
51802.0,STARLINK-3557,PAYLOAD,2024-01-11 18:41:38,15.08837479,0.0001553,53.2171,286.1788,93.6512,266.4658,-5.1799e-05,-1.112e-05,0.0,0 STARLINK-3557,1 51802U 22017AL  24011.77891796 -.00001112  00000-0 -51799-4 0  9992,2 51802  53.2171 286.1788 0001553  93.6512 266.4658 15.08837479104977,6917.888,95.438,540.827,538.679,0.0
51802.0,STARLINK-3557,PAYLOAD,2024-01-11 21:52:24,15.08841543,0.0001484,53.2167,285.5824,108.4426,251.6728,-3.1772e-05,-7.94e-06,0.0,0 STARLINK-3557,1 51802U 22017AL  24011.91139332 -.00000794  00000-0 -31772-4 0  9993,2 51802  53.2167 285.5824 0001484 108.4426 251.6728 15.08841543104991,6917.876,95.437,540.767,538.714,0.0
51802.0,STARLINK-3557,PAYLOAD,2024-01-12 01:03:10,15.08839295,0.0001422,53.2171,284.9939,84.4854,275.63,2.9924e-05,1.88e-06,0.0,0 STARLINK-3557,1 51802U 22017AL  24012.04387505  .00000188  00000-0  29924-4 0  9996,2 51802  53.2171 284.9939 0001422  84.4854 275.6300 15.08839295105013,6917.883,95.438,540.731,538.764,0.0
51802.0,STARLINK-3557,PAYLOAD,2024-01-12 21:43:12,15.08835152,0.0001407,53.2175,281.1259,97.6853,262.4299,-1.9095e-05,-5.92e-06,0.0,0 STARLINK-3557,1 51802U 22017AL  24012.90500165 -.00000592  00000-0 -19095-4 0  9999,2 51802  53.2175 281.1259 0001407  97.6853 262.4299 15.08835152105142,6917.895,95.438,540.734,538.787,0.0
51802.0,STARLINK-3557,PAYLOAD,2024-01-12 23:18:35,15.088355,0.0001338,53.2174,280.829,89.9023,270.2123,-9.8584e-06,-4.45e-06,0.0,0 STARLINK-3557,1 51802U 22017AL  24012.97124168 -.00000445  00000-0 -98584-5 0  9999,2 51802  53.2174 280.8290 0001338  89.9023 270.2123 15.08835500105159,6917.894,95.438,540.685,538.834,0.0
51802.0,STARLINK-3557,PAYLOAD,2024-01-13 16:47:50,15.08816293,0.0001171,53.2168,277.5589,100.3038,259.8086,0.00040601,6.176e-05,0.0,0 STARLINK-3557,1 51802U 22017AL  24013.69988850  .00006176  00000-0  40601-3 0  9995,2 51802  53.2168 277.5589 0001171 100.3038 259.8086 15.08816293105266,6917.953,95.439,540.628,539.008,0.0
51802.0,STARLINK-3557,PAYLOAD,2024-01-14 03:55:30,15.08849822,0.0001264,53.2178,275.4763,95.7401,264.3735,0.00019806,2.866e-05,0.0,0 STARLINK-3557,1 51802U 22017AL  24014.16355133  .00002866  00000-0  19806-3 0  9995,2 51802  53.2178 275.4763 0001264  95.7401 264.3735 15.08849822105336,6917.85,95.437,540.59,538.841,0.0
51802.0,STARLINK-3557,PAYLOAD,2024-01-14 21:24:45,15.08843149,0.0001532,53.2168,272.2096,80.1979,279.9186,8.9395e-05,1.135e-05,0.0,0 STARLINK-3557,1 51802U 22017AL  24014.89219822  .00001135  00000-0  89395-4 0  9998,2 51802  53.2168 272.2096 0001532  80.1979 279.9186 15.08843149105445,6917.871,95.437,540.796,538.676,0.0
51802.0,STARLINK-3557,PAYLOAD,2024-01-15 02:10:54,15.08856014,0.0001493,53.2173,271.314,92.122,267.9943,0.00031682,4.76e-05,0.0,0 STARLINK-3557,1 51802U 22017AL  24015.09091114  .00004760  00000-0  31682-3 0  9995,2 51802  53.2173 271.3140 0001493  92.1220 267.9943 15.08856014105475,6917.831,95.437,540.729,538.664,0.0
51802.0,STARLINK-3557,PAYLOAD,2024-01-16 02:01:42,15.08842902,0.000153,53.2168,266.852,83.9049,276.2117,-5.5211e-07,-2.97e-06,0.0,0 STARLINK-3557,1 51802U 22017AL  24016.08451761 -.00000297  00000-0 -55211-6 0  9993,2 51802  53.2168 266.8520 0001530  83.9049 276.2117 15.08842902105623,6917.872,95.437,540.795,538.678,0.0
51802.0,STARLINK-3557,PAYLOAD,2024-01-16 21:06:20,15.08844948,0.0001523,53.2156,263.2867,69.7678,290.3478,7.4184e-05,8.93e-06,0.0,0 STARLINK-3557,1 51802U 22017AL  24016.87939834  .00000893  00000-0  74184-4 0  9990,2 51802  53.2156 263.2867 0001523  69.7678 290.3478 15.08844948105749,6917.865,95.437,540.784,538.677,0.0
51802.0,STARLINK-3557,PAYLOAD,2024-01-17 01:52:29,15.08850978,0.0001513,53.216,262.3915,91.6615,268.455,0.0001348,1.859e-05,0.0,0 STARLINK-3557,1 51802U 22017AL  24017.07811411  .00001859  00000-0  13480-3 0  9997,2 51802  53.2160 262.3915 0001513  91.6615 268.4550 15.08850978105772,6917.847,95.437,540.759,538.665,0.0
51802.0,STARLINK-3557,PAYLOAD,2024-01-17 19:21:44,15.08836154,0.0001833,53.2156,259.1141,123.8351,236.2816,0.000117,1.574e-05,0.0,0 STARLINK-3557,1 51802U 22017AL  24017.80676239  .00001574  00000-0  11700-3 0  9992,2 51802  53.2156 259.1141 0001833 123.8351 236.2816 15.08836154105882,6917.892,95.438,541.025,538.489,0.0
51802.0,STARLINK-3557,PAYLOAD,2024-01-17 22:32:30,15.08837818,0.0001326,53.2152,258.5282,81.6019,278.5123,0.00011584,1.556e-05,0.0,0 STARLINK-3557,1 51802U 22017AL  24017.93924462  .00001556  00000-0  11584-3 0  9990,2 51802  53.2152 258.5282 0001326  81.6019 278.5123 15.08837818105907,6917.887,95.438,540.669,538.835,0.0
51802.0,STARLINK-3557,PAYLOAD,2024-01-18 20:47:54,15.08843896,0.0001235,53.2154,254.3638,90.6833,269.4301,0.00020219,2.932e-05,0.0,0 STARLINK-3557,1 51802U 22017AL  24018.86660342  .00002932  00000-0  20219-3 0  9991,2 51802  53.2154 254.3638 0001235  90.6833 269.4301 15.08843896106047,6917.868,95.437,540.588,538.879,0.0
51802.0,STARLINK-3557,PAYLOAD,2024-01-19 19:03:18,15.08840931,0.0001156,53.2151,250.2014,88.7182,271.3943,0.00010778,1.428e-05,0.0,0 STARLINK-3557,1 51802U 22017AL  24019.79396474  .00001428  00000-0  10778-3 0  9994,2 51802  53.2151 250.2014 0001156  88.7182 271.3943 15.08840931106180,6917.878,95.437,540.542,538.943,0.0
51802.0,STARLINK-3557,PAYLOAD,2024-01-19 22:14:04,15.08842703,0.0001169,53.215,249.6066,89.5866,270.526,0.00013511,1.863e-05,0.0,0 STARLINK-3557,1 51802U 22017AL  24019.92644363  .00001863  00000-0  13511-3 0  9993,2 51802  53.2150 249.6066 0001169  89.5866 270.5260 15.08842703106205,6917.872,95.437,540.546,538.928,0.0
51802.0,STARLINK-3557,PAYLOAD,2024-01-20 14:07:56,15.08835304,0.000126,53.215,246.6325,108.5081,251.6049,-9.3219e-06,-4.36e-06,0.0,0 STARLINK-3557,1 51802U 22017AL  24020.58884821 -.00000436  00000-0 -93219-5 0  9994,2 51802  53.2150 246.6325 0001260 108.5081 251.6049 15.08835304106308,6917.895,95.438,540.631,538.888,0.0
